{
  "norad_id": 55171,
  "name": "ONEWEB-0631",
  "history": [
    {
      "epoch": "2026-03-28T17:57:00.315648Z",
      "apogee_km": 1191.209942618816,
      "perigee_km": 1188.2596834712185,
      "latitude_deg": 7.604862865183904e-05,
      "longitude_deg": -103.99583223121824,
      "height_km": 1191.9928644726415,
      "semi_major_axis_km": 7567.871813045017,
      "eccentricity": 0.00019492,
      "inclination_deg": 87.9245,
      "raan_deg": 351.4194,
      "arg_perigee_deg": 64.3291,
      "mean_anomaly_deg": 295.8043,
      "mean_motion_rev_day": 13.18688173
    },
    {
      "epoch": "2026-03-29T04:52:34.616352Z",
      "apogee_km": 1191.1954028535074,
      "perigee_km": 1188.2711777733293,
      "latitude_deg": -2.7393758758583172e-05,
      "longitude_deg": 91.57222157480665,
      "height_km": 1191.9943451850186,
      "semi_major_axis_km": 7567.870290313418,
      "eccentricity": 0.0001932,
      "inclination_deg": 87.9245,
      "raan_deg": 351.3291,
      "arg_perigee_deg": 64.2124,
      "mean_anomaly_deg": 295.9207,
      "mean_motion_rev_day": 13.18688571
    }
  ]
}